STARLINK-32449          
1 61670U 24193K   26068.47804778 -.00001749  00000+0 -46982-4 0  9991
2 61670  53.1602  92.0291 0000843  77.9041 282.2055 15.30175539 76494
TEVEL2-7                
1 63238U 25052AE  26068.66113295  .00019244  00000+0  69668-3 0  9998
2 63238  97.4054 324.3041 0008105 124.6830 235.5175 15.28414096 54803
